CCSDS_OMM_VERS = 2.0
CREATION_DATE  = 
ORIGINATOR     = 

OBJECT_NAME    = CORAL
OBJECT_ID      = 1998-067YB
CENTER_NAME    = EARTH
REF_FRAME      = TEME
TIME_SYSTEM    = UTC
MEAN_ELEMENT_THEORY = SGP/SGP4

EPOCH          = 2026-02-24T06:16:31.773504
MEAN_MOTION    = 15.50912243
ECCENTRICITY   = .00118177
INCLINATION    = 51.6307
RA_OF_ASC_NODE = 138.4900
ARG_OF_PERICENTER = 137.4940
MEAN_ANOMALY   = 222.6967

EPHEMERIS_TYPE = 0
CLASSIFICATION_TYPE = U
NORAD_CAT_ID   = 67685
ELEMENT_SET_NO = 999
REV_AT_EPOCH   = 270
BSTAR          = .65096049E-3
MEAN_MOTION_DOT = .38195E-3
MEAN_MOTION_DDOT = 0

CCSDS_OMM_VERS = 2.0
CREATION_DATE  = 
ORIGINATOR     = 

OBJECT_NAME    = ISS OBJECT YC
OBJECT_ID      = 1998-067YC
CENTER_NAME    = EARTH
REF_FRAME      = TEME
TIME_SYSTEM    = UTC
MEAN_ELEMENT_THEORY = SGP/SGP4

EPOCH          = 2026-02-24T06:13:37.297344
MEAN_MOTION    = 15.51210773
ECCENTRICITY   = .00077324
INCLINATION    = 51.6315
RA_OF_ASC_NODE = 138.4780
ARG_OF_PERICENTER = 107.7017
MEAN_ANOMALY   = 252.4817

EPHEMERIS_TYPE = 0
CLASSIFICATION_TYPE = U
NORAD_CAT_ID   = 67686
ELEMENT_SET_NO = 999
REV_AT_EPOCH   = 270
BSTAR          = .77141617E-3
MEAN_MOTION_DOT = .45811E-3
MEAN_MOTION_DDOT = 0

CCSDS_OMM_VERS = 2.0
CREATION_DATE  = 
ORIGINATOR     = 

OBJECT_NAME    = LEOPARD
OBJECT_ID      = 1998-067YD
CENTER_NAME    = EARTH
REF_FRAME      = TEME
TIME_SYSTEM    = UTC
MEAN_ELEMENT_THEORY = SGP/SGP4

EPOCH          = 2026-02-24T06:17:40.186752
MEAN_MOTION    = 15.50805538
ECCENTRICITY   = .00077654
INCLINATION    = 51.6309
RA_OF_ASC_NODE = 138.4961
ARG_OF_PERICENTER = 110.8701
MEAN_ANOMALY   = 249.3120

EPHEMERIS_TYPE = 0
CLASSIFICATION_TYPE = U
NORAD_CAT_ID   = 67687
ELEMENT_SET_NO = 999
REV_AT_EPOCH   = 262
BSTAR          = .58307916E-3
MEAN_MOTION_DOT = .33961E-3
MEAN_MOTION_DDOT = 0

CCSDS_OMM_VERS = 2.0
CREATION_DATE  = 
ORIGINATOR     = 

OBJECT_NAME    = ISS OBJECT YE
OBJECT_ID      = 1998-067YE
CENTER_NAME    = EARTH
REF_FRAME      = TEME
TIME_SYSTEM    = UTC
MEAN_ELEMENT_THEORY = SGP/SGP4

EPOCH          = 2026-02-24T06:14:51.109728
MEAN_MOTION    = 15.51068548
ECCENTRICITY   = .00076502
INCLINATION    = 51.6330
RA_OF_ASC_NODE = 138.4845
ARG_OF_PERICENTER = 109.9570
MEAN_ANOMALY   = 250.2244

EPHEMERIS_TYPE = 0
CLASSIFICATION_TYPE = U
NORAD_CAT_ID   = 67688
ELEMENT_SET_NO = 999
REV_AT_EPOCH   = 262
BSTAR          = .67527026E-3
MEAN_MOTION_DOT = .39807E-3
MEAN_MOTION_DDOT = 0

CCSDS_OMM_VERS = 2.0
CREATION_DATE  = 
ORIGINATOR     = 

OBJECT_NAME    = PRC TEST SPACECRAFT 4
OBJECT_ID      = 2026-024A
CENTER_NAME    = EARTH
REF_FRAME      = TEME
TIME_SYSTEM    = UTC
MEAN_ELEMENT_THEORY = SGP/SGP4

EPOCH          = 2026-02-24T07:06:39.103488
MEAN_MOTION    = 14.91677128
ECCENTRICITY   = .00061685
INCLINATION    = 49.9851
RA_OF_ASC_NODE = 85.6438
ARG_OF_PERICENTER = 308.4601
MEAN_ANOMALY   = 51.5787

EPHEMERIS_TYPE = 0
CLASSIFICATION_TYPE = U
NORAD_CAT_ID   = 67689
ELEMENT_SET_NO = 999
REV_AT_EPOCH   = 258
BSTAR          = .24460558E-4
MEAN_MOTION_DOT = .4E-7
MEAN_MOTION_DDOT = 0

CCSDS_OMM_VERS = 2.0
CREATION_DATE  = 
ORIGINATOR     = 

OBJECT_NAME    = CZ-2F R/B
OBJECT_ID      = 2026-024B
CENTER_NAME    = EARTH
REF_FRAME      = TEME
TIME_SYSTEM    = UTC
MEAN_ELEMENT_THEORY = SGP/SGP4

EPOCH          = 2026-02-24T05:15:52.175232
MEAN_MOTION    = 15.33738921
ECCENTRICITY   = .01760773
INCLINATION    = 49.9865
RA_OF_ASC_NODE = 82.1304
ARG_OF_PERICENTER = 219.0669
MEAN_ANOMALY   = 139.7466

EPHEMERIS_TYPE = 0
CLASSIFICATION_TYPE = U
NORAD_CAT_ID   = 67690
ELEMENT_SET_NO = 999
REV_AT_EPOCH   = 262
BSTAR          = .36457121E-3
MEAN_MOTION_DOT = .19685E-3
MEAN_MOTION_DDOT = 0

CCSDS_OMM_VERS = 2.0
CREATION_DATE  = 
ORIGINATOR     = 

OBJECT_NAME    = CZ-2F DEB
OBJECT_ID      = 2026-024C
CENTER_NAME    = EARTH
REF_FRAME      = TEME
TIME_SYSTEM    = UTC
MEAN_ELEMENT_THEORY = SGP/SGP4

EPOCH          = 2026-02-24T07:08:26.134080
MEAN_MOTION    = 15.79871409
ECCENTRICITY   = .020701
INCLINATION    = 49.9053
RA_OF_ASC_NODE = 77.1591
ARG_OF_PERICENTER = 230.0528
MEAN_ANOMALY   = 128.2104

EPHEMERIS_TYPE = 0
CLASSIFICATION_TYPE = U
NORAD_CAT_ID   = 67691
ELEMENT_SET_NO = 999
REV_AT_EPOCH   = 268
BSTAR          = .82420562E-3
MEAN_MOTION_DOT = .823603E-2
MEAN_MOTION_DDOT = .10524102E-4

CCSDS_OMM_VERS = 2.0
CREATION_DATE  = 
ORIGINATOR     = 

OBJECT_NAME    = CZ-2F DEB
OBJECT_ID      = 2026-024D
CENTER_NAME    = EARTH
REF_FRAME      = TEME
TIME_SYSTEM    = UTC
MEAN_ELEMENT_THEORY = SGP/SGP4

EPOCH          = 2026-02-24T06:52:38.609472
MEAN_MOTION    = 15.19598777
ECCENTRICITY   = .02508222
INCLINATION    = 50.3155
RA_OF_ASC_NODE = 84.2943
ARG_OF_PERICENTER = 227.3055
MEAN_ANOMALY   = 130.6534

EPHEMERIS_TYPE = 0
CLASSIFICATION_TYPE = U
NORAD_CAT_ID   = 67692
ELEMENT_SET_NO = 999
REV_AT_EPOCH   = 258
BSTAR          = .36804816E-2
MEAN_MOTION_DOT = .192085E-2
MEAN_MOTION_DDOT = 0

CCSDS_OMM_VERS = 2.0
CREATION_DATE  = 
ORIGINATOR     = 

OBJECT_NAME    = STARLINK-36748
OBJECT_ID      = 2026-025A
CENTER_NAME    = EARTH
REF_FRAME      = TEME
TIME_SYSTEM    = UTC
MEAN_ELEMENT_THEORY = SGP/SGP4

EPOCH          = 2026-02-24T06:00:02.000160
MEAN_MOTION    = 15.75132376
ECCENTRICITY   = .00014483
INCLINATION    = 97.2836
RA_OF_ASC_NODE = 166.1198
ARG_OF_PERICENTER = 86.8048
MEAN_ANOMALY   = 190.3939

EPHEMERIS_TYPE = 0
CLASSIFICATION_TYPE = U
NORAD_CAT_ID   = 67693
ELEMENT_SET_NO = 999
REV_AT_EPOCH   = 369
BSTAR          = .77603955E-3
MEAN_MOTION_DOT = .116927E-2
MEAN_MOTION_DDOT = 0

CCSDS_OMM_VERS = 2.0
CREATION_DATE  = 
ORIGINATOR     = 

OBJECT_NAME    = STARLINK-36753
OBJECT_ID      = 2026-025B
CENTER_NAME    = EARTH
REF_FRAME      = TEME
TIME_SYSTEM    = UTC
MEAN_ELEMENT_THEORY = SGP/SGP4

EPOCH          = 2026-02-24T06:00:02.000160
MEAN_MOTION    = 15.77496561
ECCENTRICITY   = .00016816
INCLINATION    = 97.2834
RA_OF_ASC_NODE = 166.1373
ARG_OF_PERICENTER = 80.7857
MEAN_ANOMALY   = 238.0420

EPHEMERIS_TYPE = 0
CLASSIFICATION_TYPE = U
NORAD_CAT_ID   = 67694
ELEMENT_SET_NO = 999
REV_AT_EPOCH   = 385
BSTAR          = -.12452249E-1
MEAN_MOTION_DOT = -.1805836E-1
MEAN_MOTION_DDOT = 0

CCSDS_OMM_VERS = 2.0
CREATION_DATE  = 
ORIGINATOR     = 

OBJECT_NAME    = STARLINK-36750
OBJECT_ID      = 2026-025C
CENTER_NAME    = EARTH
REF_FRAME      = TEME
TIME_SYSTEM    = UTC
MEAN_ELEMENT_THEORY = SGP/SGP4

EPOCH          = 2026-02-24T06:00:02.000160
MEAN_MOTION    = 15.80770282
ECCENTRICITY   = .00017267
INCLINATION    = 97.2836
RA_OF_ASC_NODE = 166.1317
ARG_OF_PERICENTER = 83.0282
MEAN_ANOMALY   = 221.4160

EPHEMERIS_TYPE = 0
CLASSIFICATION_TYPE = U
NORAD_CAT_ID   = 67695
ELEMENT_SET_NO = 999
REV_AT_EPOCH   = 369
BSTAR          = .65823561E-3
MEAN_MOTION_DOT = .127537E-2
MEAN_MOTION_DDOT = 0

CCSDS_OMM_VERS = 2.0
CREATION_DATE  = 
ORIGINATOR     = 

OBJECT_NAME    = STARLINK-36401
OBJECT_ID      = 2026-025D
CENTER_NAME    = EARTH
REF_FRAME      = TEME
TIME_SYSTEM    = UTC
MEAN_ELEMENT_THEORY = SGP/SGP4

EPOCH          = 2026-02-24T06:00:02.000160
MEAN_MOTION    = 15.80810663
ECCENTRICITY   = .00014909
INCLINATION    = 97.2835
RA_OF_ASC_NODE = 166.1349
ARG_OF_PERICENTER = 65.4886
MEAN_ANOMALY   = 247.7636

EPHEMERIS_TYPE = 0
CLASSIFICATION_TYPE = U
NORAD_CAT_ID   = 67696
ELEMENT_SET_NO = 999
REV_AT_EPOCH   = 369
BSTAR          = .25418489E-3
MEAN_MOTION_DOT = .48808E-3
MEAN_MOTION_DDOT = 0

