CORAL                   
1 67685U 98067YB  26055.26147886  .00038195  00000+0  65096-3 0  9996
2 67685  51.6307 138.4900 0011817 137.4940 222.6967 15.50912243  2702
ISS OBJECT YC           
1 67686U 98067YC  26055.25945946  .00045811  00000+0  77142-3 0  9997
2 67686  51.6315 138.4780 0007732 107.7017 252.4817 15.51210773  2709
LEOPARD                 
1 67687U 98067YD  26055.26227068  .00033961  00000+0  58308-3 0  9993
2 67687  51.6309 138.4961 0007765 110.8701 249.3120 15.50805538  2626
ISS OBJECT YE           
1 67688U 98067YE  26055.26031377  .00039807  00000+0  67527-3 0  9998
2 67688  51.6330 138.4845 0007650 109.9570 250.2244 15.51068548  2629
PRC TEST SPACECRAFT 4   
1 67689U 26024A   26055.29628592  .00000004  00000+0  24461-4 0  9995
2 67689  49.9851  85.6438 0006168 308.4601  51.5787 14.91677128  2585
CZ-2F R/B               
1 67690U 26024B   26055.21935388  .00019685  00000+0  36457-3 0  9995
2 67690  49.9865  82.1304 0176077 219.0669 139.7466 15.33738921  2628
CZ-2F DEB               
1 67691U 26024C   26055.29752470  .00823603  10524-4  82421-3 0  9995
2 67691  49.9053  77.1591 0207010 230.0528 128.2104 15.79871409  2686
CZ-2F DEB               
1 67692U 26024D   26055.28655798  .00192085  00000+0  36805-2 0  9990
2 67692  50.3155  84.2943 0250822 227.3055 130.6534 15.19598777  2580
STARLINK-36748          
1 67693U 26025A   26055.25002315  .00116927  00000+0  77604-3 0  9994
2 67693  97.2836 166.1198 0001448  86.8048 190.3939 15.75132376  3693
STARLINK-36753          
1 67694U 26025B   26055.25002315 -.01805836  00000+0 -12452-1 0  9990
2 67694  97.2834 166.1373 0001681  80.7857 238.0420 15.77496561  3851
STARLINK-36750          
1 67695U 26025C   26055.25002315  .00127537  00000+0  65824-3 0  9996
2 67695  97.2836 166.1317 0001726  83.0282 221.4160 15.80770282  3698
STARLINK-36401          
1 67696U 26025D   26055.25002315  .00048808  00000+0  25418-3 0  9995
2 67696  97.2835 166.1349 0001490  65.4886 247.7636 15.80810663  3692
